SHIJIAN-16 (SJ-16)      
1 39358U 13057A   25330.24051812  .00002491  00000+0  24834-3 0  9999
2 39358  74.9741  20.8716 0017018 359.0753   1.0400 14.91917905656070
SL-4 R/B                
1 39679U 14021B   25330.15915227  .00016980  00000+0  40801-3 0  9996
2 39679  51.6063 121.1370 0103074  86.5959 274.6807 15.36065619640342
ALOS-2                  
1 39766U 14029A   25330.24062455 -.00000653  00000+0 -80536-4 0  9999
2 39766  97.9241  65.3218 0001256  97.7669 262.3685 14.79476216621578
YAOGAN-29               
1 41038U 15069A   25330.22004488  .00000560  00000+0  75878-4 0  9997
2 41038  98.0235 353.3375 0001299  23.9072 336.2201 14.82855257540540
ASTRO-H (HITOMI)        
1 41337U 16012A   25330.15646887  .00003899  00000+0  23345-3 0  9994
2 41337  31.0009 304.2678 0009627   9.9163 350.1663 15.09198178536574
HXMT (HUIYAN)           
1 42758U 17034A   25330.18887528  .00008080  00000+0  41858-3 0  9995
2 42758  43.0132 231.4599 0033779 299.3842  60.3635 15.16031045466825
CZ-2C R/B               
1 43521U 18054D   25330.03343957  .00096488  00000+0  74829-3 0  9997
2 43521  35.1360 293.8524 0020748 332.5976  27.3660 15.70243415412423
SAOCOM 1A               
1 43641U 18076A   25330.13181928  .00000594  00000+0  81119-4 0  9997
2 43641  97.8858 154.7953 0001578  89.6529 270.4865 14.82149924386024
H-2A R/B                
1 43682U 18084L   25330.02558380  .00020940  00000+0  58119-3 0  9999
2 43682  98.8786 160.6520 0028609  23.4956 336.7584 15.36543067389832
SAOCOM 1B               
1 46265U 20059A   25330.16307485  .00000617  00000+0  84013-4 0  9999
2 46265  97.8846 153.9276 0001339  90.0398 270.0969 14.82158707283419
