CCSDS_OMM_VERS = 2.0
CREATION_DATE  = 
ORIGINATOR     = 

OBJECT_NAME    = SHIJIAN-16 (SJ-16)
OBJECT_ID      = 2013-057A
CENTER_NAME    = EARTH
REF_FRAME      = TEME
TIME_SYSTEM    = UTC
MEAN_ELEMENT_THEORY = SGP/SGP4

EPOCH          = 2025-11-26T05:46:20.765568
MEAN_MOTION    = 14.91917905
ECCENTRICITY   = .0017018
INCLINATION    = 74.9741
RA_OF_ASC_NODE = 20.8716
ARG_OF_PERICENTER = 359.0753
MEAN_ANOMALY   = 1.0400

EPHEMERIS_TYPE = 0
CLASSIFICATION_TYPE = U
NORAD_CAT_ID   = 39358
ELEMENT_SET_NO = 999
REV_AT_EPOCH   = 65607
BSTAR          = .24834E-3
MEAN_MOTION_DOT = .2491E-4
MEAN_MOTION_DDOT = 0

CCSDS_OMM_VERS = 2.0
CREATION_DATE  = 
ORIGINATOR     = 

OBJECT_NAME    = SL-4 R/B
OBJECT_ID      = 2014-021B
CENTER_NAME    = EARTH
REF_FRAME      = TEME
TIME_SYSTEM    = UTC
MEAN_ELEMENT_THEORY = SGP/SGP4

EPOCH          = 2025-11-26T03:49:10.756128
MEAN_MOTION    = 15.36065619
ECCENTRICITY   = .0103074
INCLINATION    = 51.6063
RA_OF_ASC_NODE = 121.1370
ARG_OF_PERICENTER = 86.5959
MEAN_ANOMALY   = 274.6807

EPHEMERIS_TYPE = 0
CLASSIFICATION_TYPE = U
NORAD_CAT_ID   = 39679
ELEMENT_SET_NO = 999
REV_AT_EPOCH   = 64034
BSTAR          = .40801E-3
MEAN_MOTION_DOT = .1698E-3
MEAN_MOTION_DDOT = 0

CCSDS_OMM_VERS = 2.0
CREATION_DATE  = 
ORIGINATOR     = 

OBJECT_NAME    = ALOS-2
OBJECT_ID      = 2014-029A
CENTER_NAME    = EARTH
REF_FRAME      = TEME
TIME_SYSTEM    = UTC
MEAN_ELEMENT_THEORY = SGP/SGP4

EPOCH          = 2025-11-26T05:46:29.961120
MEAN_MOTION    = 14.79476216
ECCENTRICITY   = .0001256
INCLINATION    = 97.9241
RA_OF_ASC_NODE = 65.3218
ARG_OF_PERICENTER = 97.7669
MEAN_ANOMALY   = 262.3685

EPHEMERIS_TYPE = 0
CLASSIFICATION_TYPE = U
NORAD_CAT_ID   = 39766
ELEMENT_SET_NO = 999
REV_AT_EPOCH   = 62157
BSTAR          = -.80536E-4
MEAN_MOTION_DOT = -.653E-5
MEAN_MOTION_DDOT = 0

CCSDS_OMM_VERS = 2.0
CREATION_DATE  = 
ORIGINATOR     = 

OBJECT_NAME    = YAOGAN-29
OBJECT_ID      = 2015-069A
CENTER_NAME    = EARTH
REF_FRAME      = TEME
TIME_SYSTEM    = UTC
MEAN_ELEMENT_THEORY = SGP/SGP4

EPOCH          = 2025-11-26T05:16:51.877632
MEAN_MOTION    = 14.82855257
ECCENTRICITY   = .0001299
INCLINATION    = 98.0235
RA_OF_ASC_NODE = 353.3375
ARG_OF_PERICENTER = 23.9072
MEAN_ANOMALY   = 336.2201

EPHEMERIS_TYPE = 0
CLASSIFICATION_TYPE = U
NORAD_CAT_ID   = 41038
ELEMENT_SET_NO = 999
REV_AT_EPOCH   = 54054
BSTAR          = .75878E-4
MEAN_MOTION_DOT = .56E-5
MEAN_MOTION_DDOT = 0

CCSDS_OMM_VERS = 2.0
CREATION_DATE  = 
ORIGINATOR     = 

OBJECT_NAME    = ASTRO-H (HITOMI)
OBJECT_ID      = 2016-012A
CENTER_NAME    = EARTH
REF_FRAME      = TEME
TIME_SYSTEM    = UTC
MEAN_ELEMENT_THEORY = SGP/SGP4

EPOCH          = 2025-11-26T03:45:18.910368
MEAN_MOTION    = 15.09198178
ECCENTRICITY   = .0009627
INCLINATION    = 31.0009
RA_OF_ASC_NODE = 304.2678
ARG_OF_PERICENTER = 9.9163
MEAN_ANOMALY   = 350.1663

EPHEMERIS_TYPE = 0
CLASSIFICATION_TYPE = U
NORAD_CAT_ID   = 41337
ELEMENT_SET_NO = 999
REV_AT_EPOCH   = 53657
BSTAR          = .23345E-3
MEAN_MOTION_DOT = .3899E-4
MEAN_MOTION_DDOT = 0

CCSDS_OMM_VERS = 2.0
CREATION_DATE  = 
ORIGINATOR     = 

OBJECT_NAME    = HXMT (HUIYAN)
OBJECT_ID      = 2017-034A
CENTER_NAME    = EARTH
REF_FRAME      = TEME
TIME_SYSTEM    = UTC
MEAN_ELEMENT_THEORY = SGP/SGP4

EPOCH          = 2025-11-26T04:31:58.824192
MEAN_MOTION    = 15.16031045
ECCENTRICITY   = .0033779
INCLINATION    = 43.0132
RA_OF_ASC_NODE = 231.4599
ARG_OF_PERICENTER = 299.3842
MEAN_ANOMALY   = 60.3635

EPHEMERIS_TYPE = 0
CLASSIFICATION_TYPE = U
NORAD_CAT_ID   = 42758
ELEMENT_SET_NO = 999
REV_AT_EPOCH   = 46682
BSTAR          = .41858E-3
MEAN_MOTION_DOT = .808E-4
MEAN_MOTION_DDOT = 0

CCSDS_OMM_VERS = 2.0
CREATION_DATE  = 
ORIGINATOR     = 

OBJECT_NAME    = CZ-2C R/B
OBJECT_ID      = 2018-054D
CENTER_NAME    = EARTH
REF_FRAME      = TEME
TIME_SYSTEM    = UTC
MEAN_ELEMENT_THEORY = SGP/SGP4

EPOCH          = 2025-11-26T00:48:09.178848
MEAN_MOTION    = 15.70243415
ECCENTRICITY   = .0020748
INCLINATION    = 35.1360
RA_OF_ASC_NODE = 293.8524
ARG_OF_PERICENTER = 332.5976
MEAN_ANOMALY   = 27.3660

EPHEMERIS_TYPE = 0
CLASSIFICATION_TYPE = U
NORAD_CAT_ID   = 43521
ELEMENT_SET_NO = 999
REV_AT_EPOCH   = 41242
BSTAR          = .74829E-3
MEAN_MOTION_DOT = .96488E-3
MEAN_MOTION_DDOT = 0

CCSDS_OMM_VERS = 2.0
CREATION_DATE  = 
ORIGINATOR     = 

OBJECT_NAME    = SAOCOM 1A
OBJECT_ID      = 2018-076A
CENTER_NAME    = EARTH
REF_FRAME      = TEME
TIME_SYSTEM    = UTC
MEAN_ELEMENT_THEORY = SGP/SGP4

EPOCH          = 2025-11-26T03:09:49.185792
MEAN_MOTION    = 14.82149924
ECCENTRICITY   = .0001578
INCLINATION    = 97.8858
RA_OF_ASC_NODE = 154.7953
ARG_OF_PERICENTER = 89.6529
MEAN_ANOMALY   = 270.4865

EPHEMERIS_TYPE = 0
CLASSIFICATION_TYPE = U
NORAD_CAT_ID   = 43641
ELEMENT_SET_NO = 999
REV_AT_EPOCH   = 38602
BSTAR          = .81119E-4
MEAN_MOTION_DOT = .594E-5
MEAN_MOTION_DDOT = 0

CCSDS_OMM_VERS = 2.0
CREATION_DATE  = 
ORIGINATOR     = 

OBJECT_NAME    = H-2A R/B
OBJECT_ID      = 2018-084L
CENTER_NAME    = EARTH
REF_FRAME      = TEME
TIME_SYSTEM    = UTC
MEAN_ELEMENT_THEORY = SGP/SGP4

EPOCH          = 2025-11-26T00:36:50.440320
MEAN_MOTION    = 15.36543067
ECCENTRICITY   = .00286088
INCLINATION    = 98.8786
RA_OF_ASC_NODE = 160.6520
ARG_OF_PERICENTER = 23.4956
MEAN_ANOMALY   = 336.7584

EPHEMERIS_TYPE = 0
CLASSIFICATION_TYPE = U
NORAD_CAT_ID   = 43682
ELEMENT_SET_NO = 999
REV_AT_EPOCH   = 38983
BSTAR          = .58119E-3
MEAN_MOTION_DOT = .2094E-3
MEAN_MOTION_DDOT = 0

CCSDS_OMM_VERS = 2.0
CREATION_DATE  = 
ORIGINATOR     = 

OBJECT_NAME    = SAOCOM 1B
OBJECT_ID      = 2020-059A
CENTER_NAME    = EARTH
REF_FRAME      = TEME
TIME_SYSTEM    = UTC
MEAN_ELEMENT_THEORY = SGP/SGP4

EPOCH          = 2025-11-26T03:54:49.667040
MEAN_MOTION    = 14.82158707
ECCENTRICITY   = .0001339
INCLINATION    = 97.8846
RA_OF_ASC_NODE = 153.9276
ARG_OF_PERICENTER = 90.0398
MEAN_ANOMALY   = 270.0969

EPHEMERIS_TYPE = 0
CLASSIFICATION_TYPE = U
NORAD_CAT_ID   = 46265
ELEMENT_SET_NO = 999
REV_AT_EPOCH   = 28341
BSTAR          = .84013E-4
MEAN_MOTION_DOT = .617E-5
MEAN_MOTION_DDOT = 0

